{
  "norad_id": 65414,
  "name": "STARLINK-34411",
  "history": [
    {
      "epoch": "2026-03-29T01:09:11.571840Z",
      "apogee_km": 266.96895176614,
      "perigee_km": 253.16149114551263,
      "latitude_deg": 9.740159068289954e-07,
      "longitude_deg": -82.83815702353957,
      "height_km": 254.2556470342439,
      "semi_major_axis_km": 6638.2022214558265,
      "eccentricity": 0.00104,
      "inclination_deg": 53.1292,
      "raan_deg": 120.9198,
      "arg_perigee_deg": 12.8093,
      "mean_anomaly_deg": 347.3202,
      "mean_motion_rev_day": 16.05192214
    },
    {
      "epoch": "2026-03-29T08:37:26.653728Z",
      "apogee_km": 265.5221946183274,
      "perigee_km": 251.58647015857787,
      "latitude_deg": 3.183796706606043e-05,
      "longitude_deg": 163.17400779452686,
      "height_km": 252.70239715434772,
      "semi_major_axis_km": 6636.691332388453,
      "eccentricity": 0.0010499,
      "inclination_deg": 53.1293,
      "raan_deg": 119.3016,
      "arg_perigee_deg": 13.5377,
      "mean_anomaly_deg": 346.5936,
      "mean_motion_rev_day": 16.05740395
    }
  ]
}